1 27424U 02022A   11295.94921281  .00001232  00000-0  28330-3 0  1000
2 27424 098.2070 234.7407 0001368 082.7065 277.4321 14.57131729503677